NORAD_CAT_ID,OBJECT_NAME,OBJECT_TYPE,EPOCH,MEAN_MOTION,ECCENTRICITY,INCLINATION,RA_OF_ASC_NODE,ARG_OF_PERICENTER,MEAN_ANOMALY,BSTAR,MEAN_MOTION_DOT,MEAN_MOTION_DDOT,TLE_LINE0,TLE_LINE1,TLE_LINE2,SEMIMAJOR_AXIS,PERIOD,APOGEE,PERIGEE,DECAYED
51957.0,STARLINK-3694,PAYLOAD,2023-01-27 04:32:59,15.0884533,0.0001356,53.2148,95.5615,93.9858,266.1289,0.00019776,2.861e-05,0.0,0 STARLINK-3694,1 51957U 22025B   23027.18957651  .00002861  00000-0  19776-3 0  9994,2 51957  53.2148  95.5615 0001356  93.9858 266.1289 15.08845330 50589,6917.8640000000005,95.437,540.6669999999999,538.7909999999999,0.0
51957.0,STARLINK-3694,PAYLOAD,2023-01-27 09:19:08,15.08844483,0.0001278,53.2151,94.668,105.2528,254.8606,0.00013152,1.806e-05,0.0,0 STARLINK-3694,1 51957U 22025B   23027.38829571  .00001806  00000-0  13152-3 0  9995,2 51957  53.2151  94.6680 0001278 105.2528 254.8606 15.08844483 49504,6917.866999999999,95.437,540.616,538.8480000000001,0.0
51957.0,STARLINK-3694,PAYLOAD,2023-01-28 04:23:46,15.08839783,0.0001209,53.2154,91.102,76.7615,283.3512,6.8061e-05,7.95e-06,0.0,0 STARLINK-3694,1 51957U 22025B   23028.18317948  .00000795  00000-0  68061-4 0  9990,2 51957  53.2154  91.1020 0001209  76.7615 283.3512 15.08839783 50737,6917.880999999999,95.438,540.582,538.91,0.0
51957.0,STARLINK-3694,PAYLOAD,2023-01-28 13:56:05,15.08843041,0.0001102,53.2157,89.3144,88.2461,271.8657,2.4712e-05,1.06e-06,0.0,0 STARLINK-3694,1 51957U 22025B   23028.58061759  .00000106  00000-0  24712-4 0  9991,2 51957  53.2157  89.3144 0001102  88.2461 271.8657 15.08843041 49681,6917.871,95.437,540.498,538.974,0.0
51957.0,STARLINK-3694,PAYLOAD,2023-01-29 13:46:52,15.08846343,0.0001094,53.2161,84.8548,96.9737,263.1379,0.0001223,1.659e-05,0.0,0 STARLINK-3694,1 51957U 22025B   23029.57421383  .00001659  00000-0  12230-3 0  9999,2 51957  53.2161  84.8548 0001094  96.9737 263.1379 15.08846343 50940,6917.861,95.437,540.483,538.969,0.0
51957.0,STARLINK-3694,PAYLOAD,2023-01-29 20:08:25,15.08831943,0.0001724,53.2163,83.6632,72.142,287.9761,7.6652e-05,9.32e-06,0.0,0 STARLINK-3694,1 51957U 22025B   23029.83918738  .00000932  00000-0  76652-4 0  9995,2 51957  53.2163  83.6632 0001724  72.1420 287.9761 15.08831943 50981,6917.905,95.438,540.963,538.577,0.0
51957.0,STARLINK-3694,PAYLOAD,2023-01-30 08:51:30,15.08832792,0.0001144,53.2158,81.2856,97.9556,262.1566,5.6584e-05,6.13e-06,0.0,0 STARLINK-3694,1 51957U 22025B   23030.36910738  .00000613  00000-0  56584-4 0  9995,2 51957  53.2158  81.2856 0001144  97.9556 262.1566 15.08832792 49954,6917.902,95.438,540.559,538.976,0.0
51957.0,STARLINK-3694,PAYLOAD,2023-01-30 19:59:12,15.0884016,0.0001092,53.2164,79.2053,84.1155,275.9962,3.3881e-05,2.51e-06,0.0,0 STARLINK-3694,1 51957U 22025B   23030.83278413  .00000251  00000-0  33881-4 0  9997,2 51957  53.2164  79.2053 0001092  84.1155 275.9962 15.08840160 50022,6917.88,95.438,540.5,538.989,0.0
51957.0,STARLINK-3694,PAYLOAD,2023-01-31 03:56:08,15.08836124,0.0001129,53.2171,77.7183,96.0987,264.0134,7.1248e-06,-1.74e-06,0.0,0 STARLINK-3694,1 51957U 22025B   23031.16399013 -.00000174  00000-0  71248-5 0  9999,2 51957  53.2171  77.7183 0001129  96.0987 264.0134 15.08836124 51186,6917.892,95.438,540.538,538.976,0.0
51957.0,STARLINK-3694,PAYLOAD,2023-01-31 11:53:04,15.08840294,0.0001146,53.2169,76.2323,84.6244,275.4879,4.9631e-05,5.02e-06,0.0,0 STARLINK-3694,1 51957U 22025B   23031.49518724  .00000502  00000-0  49631-4 0  9991,2 51957  53.2169  76.2323 0001146  84.6244 275.4879 15.08840294 50129,6917.879,95.438,540.537,538.952,0.0
51957.0,STARLINK-3694,PAYLOAD,2023-01-31 19:49:59,15.08845479,0.0001261,53.2156,74.7443,79.2682,280.8452,3.7611e-05,3.11e-06,0.0,0 STARLINK-3694,1 51957U 22025B   23031.82638392  .00000311  00000-0  37611-4 0  9995,2 51957  53.2156  74.7443 0001261  79.2682 280.8452 15.08845479 50177,6917.864,95.437,540.601,538.856,0.0
51957.0,STARLINK-3694,PAYLOAD,2023-02-01 10:08:27,15.08846972,0.0001379,53.2167,72.0685,84.323,275.792,0.00026646,3.956e-05,0.0,0 STARLINK-3694,1 51957U 22025B   23032.42254241  .00003956  00000-0  26646-3 0  9992,2 51957  53.2167  72.0685 0001379  84.3230 275.7920 15.08846972 51379,6917.859,95.437,540.678,538.77,0.0
51957.0,STARLINK-3694,PAYLOAD,2023-02-02 02:02:19,15.08836146,0.0001303,53.216,69.0947,82.2142,277.8998,6.6973e-05,7.78e-06,0.0,0 STARLINK-3694,1 51957U 22025B   23033.08494766  .00000778  00000-0  66973-4 0  9990,2 51957  53.2160  69.0947 0001303  82.2142 277.8998 15.08836146 51476,6917.892,95.438,540.659,538.856,0.0
51957.0,STARLINK-3694,PAYLOAD,2023-02-02 09:59:15,15.08841453,0.0001252,53.2174,67.6076,83.5899,276.5236,4.7267e-05,4.64e-06,0.0,0 STARLINK-3694,1 51957U 22025B   23033.41614813  .00000464  00000-0  47267-4 0  9991,2 51957  53.2174  67.6076 0001252  83.5899 276.5236 15.08841453 50415,6917.876,95.437,540.607,538.875,0.0
51957.0,STARLINK-3694,PAYLOAD,2023-02-03 11:25:24,15.08850719,0.0001335,53.2165,62.849,84.84,275.2744,7.2198e-05,8.62e-06,0.0,0 STARLINK-3694,1 51957U 22025B   23034.47598051  .00000862  00000-0  72198-4 0  9996,2 51957  53.2165  62.8490 0001335  84.8400 275.2744 15.08850719 51681,6917.848,95.437,540.636,538.789,0.0
51957.0,STARLINK-3694,PAYLOAD,2023-02-04 08:05:25,15.08841707,0.0001553,53.2181,58.984,101.3315,258.7852,0.00011351,1.519e-05,0.0,0 STARLINK-3694,1 51957U 22025B   23035.33710502  .00001519  00000-0  11351-3 0  9992,2 51957  53.2181  58.9840 0001553 101.3315 258.7852 15.08841707 51814,6917.875,95.437,540.815,538.666,0.0
51957.0,STARLINK-3694,PAYLOAD,2023-02-05 07:56:13,15.08843208,0.0001398,53.2171,54.5235,96.9286,263.1865,6.8898e-05,8.09e-06,0.0,0 STARLINK-3694,1 51957U 22025B   23036.33070642  .00000809  00000-0  68898-4 0  9997,2 51957  53.2171  54.5235 0001398  96.9286 263.1865 15.08843208 50851,6917.871,95.437,540.703,538.768,0.0
51957.0,STARLINK-3694,PAYLOAD,2023-02-06 06:11:36,15.08843016,0.0001625,53.2184,50.3605,112.011,248.1055,9.4766e-05,1.221e-05,0.0,0 STARLINK-3694,1 51957U 22025B   23037.25806587  .00001221  00000-0  94766-4 0  9996,2 51957  53.2184  50.3605 0001625 112.0110 248.1055 15.08843016 52100,6917.871,95.437,540.86,538.612,0.0
51957.0,STARLINK-3694,PAYLOAD,2023-02-06 10:57:45,15.08851479,0.000143,53.2174,49.4668,108.5955,251.5193,0.00012609,1.72e-05,0.0,0 STARLINK-3694,1 51957U 22025B   23037.45677917  .00001720  00000-0  12609-3 0  9990,2 51957  53.2174  49.4668 0001430 108.5955 251.5193 15.08851479 52134,6917.845,95.437,540.7,538.721,0.0
51957.0,STARLINK-3694,PAYLOAD,2023-02-06 17:19:18,15.08844091,0.0001168,53.2164,48.2771,100.4167,259.6957,0.00012436,1.692e-05,0.0,0 STARLINK-3694,1 51957U 22025B   23037.72174394  .00001692  00000-0  12436-3 0  9997,2 51957  53.2164  48.2771 0001168 100.4167 259.6957 15.08844091 52172,6917.868,95.437,540.541,538.925,0.0
51957.0,STARLINK-3694,PAYLOAD,2023-02-07 10:48:32,15.08859387,0.0001735,53.2182,45.0063,114.7824,245.3349,-8.3911e-06,-4.22e-06,0.0,0 STARLINK-3694,1 51957U 22025B   23038.45037532 -.00000422  00000-0 -83911-5 0  9990,2 51957  53.2182  45.0063 0001735 114.7824 245.3349 15.08859387 52282,6917.821,95.436,540.886,538.486,0.0
51957.0,STARLINK-3694,PAYLOAD,2023-02-07 23:31:38,15.0883926,0.0001258,53.2175,42.6266,116.2828,243.8294,-2.5559e-05,-6.95e-06,0.0,0 STARLINK-3694,1 51957U 22025B   23038.98031074 -.00000695  00000-0 -25559-4 0  9998,2 51957  53.2175  42.6266 0001258 116.2828 243.8294 15.08839260 52362,6917.883,95.438,540.618,538.877,0.0
51957.0,STARLINK-3694,PAYLOAD,2023-02-08 07:28:33,15.08849188,0.000134,53.2155,41.1377,113.0673,247.046,6.0711e-05,6.79e-06,0.0,0 STARLINK-3694,1 51957U 22025B   23039.31149946  .00000679  00000-0  60711-4 0  9993,2 51957  53.2155  41.1377 0001340 113.0673 247.0460 15.08849188 52419,6917.852,95.437,540.644,538.79,0.0
51957.0,STARLINK-3694,PAYLOAD,2023-02-08 12:14:42,15.08853842,0.000124,53.2167,40.2474,91.4428,268.6706,0.00028142,4.195e-05,0.0,0 STARLINK-3694,1 51957U 22025B   23039.51021909  .00004195  00000-0  28142-3 0  9991,2 51957  53.2167  40.2474 0001240  91.4428 268.6706 15.08853842 51330,6917.838,95.437,540.561,538.845,0.0
51957.0,STARLINK-3694,PAYLOAD,2023-02-09 05:43:58,15.08830586,0.0001405,53.218,36.977,85.3929,274.7224,-3.3158e-05,-8.15e-06,0.0,0 STARLINK-3694,1 51957U 22025B   23040.23887356 -.00000815  00000-0 -33158-4 0  9999,2 51957  53.2180  36.9770 0001405  85.3929 274.7224 15.08830586 52555,6917.909,95.438,540.746,538.802,0.0
51957.0,STARLINK-3694,PAYLOAD,2023-02-09 07:19:21,15.08832759,0.0001301,53.2179,36.6791,83.2373,276.8767,-4.1278e-06,-3.54e-06,0.0,0 STARLINK-3694,1 51957U 22025B   23040.30511254 -.00000354  00000-0 -41278-5 0  9999,2 51957  53.2179  36.6791 0001301  83.2373 276.8767 15.08832759 51455,6917.903,95.438,540.668,538.868,0.0
51957.0,STARLINK-3694,PAYLOAD,2023-02-09 16:51:40,15.08832931,0.0001549,53.2189,34.8951,71.3674,288.7486,8.8256e-05,1.117e-05,0.0,0 STARLINK-3694,1 51957U 22025B   23040.70255717  .00001117  00000-0  88256-4 0  9994,2 51957  53.2189  34.8951 0001549  71.3674 288.7486 15.08832931 51519,6917.902,95.438,540.839,538.695,0.0
51957.0,STARLINK-3694,PAYLOAD,2023-02-10 05:34:45,15.08846408,0.0001043,53.2154,32.5155,67.4027,292.7075,0.00038183,5.795e-05,0.0,0 STARLINK-3694,1 51957U 22025B   23041.23247321  .00005795  00000-0  38183-3 0  9994,2 51957  53.2154  32.5155 0001043  67.4027 292.7075 15.08846408 52704,6917.861,95.437,540.447,539.004,0.0
51957.0,STARLINK-3694,PAYLOAD,2023-02-11 05:25:32,15.08856052,0.0001025,53.2169,28.0565,79.2156,280.8951,0.00054279,8.365e-05,0.0,0 STARLINK-3694,1 51957U 22025B   23042.22607378  .00008365  00000-0  54279-3 0  9996,2 51957  53.2169  28.0565 0001025  79.2156 280.8951 15.08856052 52852,6917.831,95.437,540.405,538.987,0.0
51957.0,STARLINK-3694,PAYLOAD,2023-02-11 08:36:18,15.08862863,0.0001297,53.2157,27.4647,80.3616,279.7523,0.00066509,0.00010319,0.0,0 STARLINK-3694,1 51957U 22025B   23042.35855083  .00010319  00000-0  66509-3 0  9999,2 51957  53.2157  27.4647 0001297  80.3616 279.7523 15.08862863 51766,6917.811,95.436,540.573,538.778,0.0
